STARLINK-32407          
1 62172U 24225K   25326.45646201  .00004054  00000+0  34728-3 0  9998
2 62172  70.0035  74.7829 0002488 258.7365 101.3515 14.98335716 53810
STARLINK-32575          
1 62173U 24225L   25326.36646273  .00004386  00000+0  37503-3 0  9990
2 62173  70.0054  64.8683 0002174 237.6860 122.4088 14.98338435 54055
STARLINK-32552          
1 62174U 24225M   25326.37718398  .00003985  00000+0  34145-3 0  9993
2 62174  70.0013  74.9133 0003569 271.0578  89.0172 14.98340675 53803
STARLINK-32534          
1 62175U 24225N   25326.35633397  .00003893  00000+0  33381-3 0  9996
2 62175  70.0024  75.2366 0002980 268.8492  91.2325 14.98337421 53791
STARLINK-32516          
1 62176U 24225P   25326.01407934 -.00035109  00000+0 -29397-2 0  9994
2 62176  70.0027  76.0468 0002884 317.5202  42.5733 14.98456855 53741
STARLINK-32542          
1 62177U 24225Q   25326.46898359  .00001330  00000+0  11922-3 0  9992
2 62177  70.0038  74.8282 0002548 247.5169 112.5720 14.98332402 53818
STARLINK-32600          
1 62178U 24225R   25326.41654734  .00015265  00000+0  12839-2 0  9994
2 62178  70.0017  65.0391 0003437 264.4391  95.6377 14.98343088 54050
STARLINK-32584          
1 62179U 24225S   25326.46062939  .00010049  00000+0  84838-3 0  9994
2 62179  70.0047  74.7350 0001600 262.5474  97.5504 14.98350285 53810
STARLINK-32587          
1 62180U 24225T   25326.38134711  .00004493  00000+0  38399-3 0  9992
2 62180  70.0030  74.8381 0002605 255.4179 104.6691 14.98338673 53801
STARLINK-32602          
1 62181U 24225U   25326.46662047  .00007238  00000+0  61329-3 0  9999
2 62181  70.0034  64.8198 0003260 270.2097  89.8689 14.98358240 54065
STARLINK-32565          
1 62182U 24225V   25326.36466654  .00000614  00000+0  59294-4 0  9995
2 62182  70.0044  74.8714 0003876 281.7140  78.3584 14.98319906 53805
STARLINK-32589          
1 62183U 24225W   25326.36451838  .00001624  00000+0  14386-3 0  9998
2 62183  70.0035  75.2653 0002672 260.9084  99.1773 14.98333662 53796
STARLINK-32581          
1 62184U 24225X   25326.38315928  .00002974  00000+0  25686-3 0  9994
2 62184  70.0038  64.9224 0002481 265.7703  94.3173 14.98336657 54056
STARLINK-32686          
1 62192U 24229A   25325.93482427  .00024993  00000+0  91311-3 0  9999
2 62192  43.0030 155.6325 0001850 270.1019  89.9621 15.27635436 54122
STARLINK-32688          
1 62193U 24229B   25325.88695278  .00037244  00000+0  13547-2 0  9991
2 62193  42.9994 159.5871 0001378 288.9312  71.1390 15.27613356 54074
STARLINK-32684          
1 62194U 24229C   25325.92662888  .00032419  00000+0  11824-2 0  9993
2 62194  43.0022 159.0331 0002179 263.7758  96.2845 15.27578380 55262
STARLINK-32672          
1 62195U 24229D   25325.54845341  .00027283  00000+0  99660-3 0  9997
2 62195  42.9969 161.3469 0000903 179.0358 181.0495 15.27603331 54029
