[{"OBJECT_NAME":"STARLINK-32407","OBJECT_ID":"2024-225K","EPOCH":"2025-11-22T10:57:18.317664","MEAN_MOTION":14.98335716,"ECCENTRICITY":0.0002488,"INCLINATION":70.0035,"RA_OF_ASC_NODE":74.7829,"ARG_OF_PERICENTER":258.7365,"MEAN_ANOMALY":101.3515,"EPHEMERIS_TYPE":0,"CLASSIFICATION_TYPE":"U","NORAD_CAT_ID":62172,"ELEMENT_SET_NO":999,"REV_AT_EPOCH":5381,"BSTAR":0.00034728,"MEAN_MOTION_DOT":4.054e-5,"MEAN_MOTION_DDOT":0},{"OBJECT_NAME":"STARLINK-32575","OBJECT_ID":"2024-225L","EPOCH":"2025-11-22T08:47:42.379872","MEAN_MOTION":14.98338435,"ECCENTRICITY":0.0002174,"INCLINATION":70.0054,"RA_OF_ASC_NODE":64.8683,"ARG_OF_PERICENTER":237.686,"MEAN_ANOMALY":122.4088,"EPHEMERIS_TYPE":0,"CLASSIFICATION_TYPE":"U","NORAD_CAT_ID":62173,"ELEMENT_SET_NO":999,"REV_AT_EPOCH":5405,"BSTAR":0.00037503,"MEAN_MOTION_DOT":4.386e-5,"MEAN_MOTION_DDOT":0},{"OBJECT_NAME":"STARLINK-32552","OBJECT_ID":"2024-225M","EPOCH":"2025-11-22T09:03:08.695872","MEAN_MOTION":14.98340675,"ECCENTRICITY":0.0003569,"INCLINATION":70.0013,"RA_OF_ASC_NODE":74.9133,"ARG_OF_PERICENTER":271.0578,"MEAN_ANOMALY":89.0172,"EPHEMERIS_TYPE":0,"CLASSIFICATION_TYPE":"U","NORAD_CAT_ID":62174,"ELEMENT_SET_NO":999,"REV_AT_EPOCH":5380,"BSTAR":0.00034145,"MEAN_MOTION_DOT":3.985e-5,"MEAN_MOTION_DDOT":0},{"OBJECT_NAME":"STARLINK-32534","OBJECT_ID":"2024-225N","EPOCH":"2025-11-22T08:33:07.255008","MEAN_MOTION":14.98337421,"ECCENTRICITY":0.000298,"INCLINATION":70.0024,"RA_OF_ASC_NODE":75.2366,"ARG_OF_PERICENTER":268.8492,"MEAN_ANOMALY":91.2325,"EPHEMERIS_TYPE":0,"CLASSIFICATION_TYPE":"U","NORAD_CAT_ID":62175,"ELEMENT_SET_NO":999,"REV_AT_EPOCH":5379,"BSTAR":0.00033381,"MEAN_MOTION_DOT":3.893e-5,"MEAN_MOTION_DDOT":0},{"OBJECT_NAME":"STARLINK-32516","OBJECT_ID":"2024-225P","EPOCH":"2025-11-22T00:20:16.454976","MEAN_MOTION":14.98456855,"ECCENTRICITY":0.0002884,"INCLINATION":70.0027,"RA_OF_ASC_NODE":76.0468,"ARG_OF_PERICENTER":317.5202,"MEAN_ANOMALY":42.5733,"EPHEMERIS_TYPE":0,"CLASSIFICATION_TYPE":"U","NORAD_CAT_ID":62176,"ELEMENT_SET_NO":999,"REV_AT_EPOCH":5374,"BSTAR":-0.0029397,"MEAN_MOTION_DOT":-0.00035109,"MEAN_MOTION_DDOT":0},{"OBJECT_NAME":"STARLINK-32542","OBJECT_ID":"2024-225Q","EPOCH":"2025-11-22T11:15:20.182176","MEAN_MOTION":14.98332402,"ECCENTRICITY":0.0002548,"INCLINATION":70.0038,"RA_OF_ASC_NODE":74.8282,"ARG_OF_PERICENTER":247.5169,"MEAN_ANOMALY":112.572,"EPHEMERIS_TYPE":0,"CLASSIFICATION_TYPE":"U","NORAD_CAT_ID":62177,"ELEMENT_SET_NO":999,"REV_AT_EPOCH":5381,"BSTAR":0.00011922,"MEAN_MOTION_DOT":1.33e-5,"MEAN_MOTION_DDOT":0},{"OBJECT_NAME":"STARLINK-32600","OBJECT_ID":"2024-225R","EPOCH":"2025-11-22T09:59:49.690176","MEAN_MOTION":14.98343088,"ECCENTRICITY":0.0003437,"INCLINATION":70.0017,"RA_OF_ASC_NODE":65.0391,"ARG_OF_PERICENTER":264.4391,"MEAN_ANOMALY":95.6377,"EPHEMERIS_TYPE":0,"CLASSIFICATION_TYPE":"U","NORAD_CAT_ID":62178,"ELEMENT_SET_NO":999,"REV_AT_EPOCH":5405,"BSTAR":0.0012839,"MEAN_MOTION_DOT":0.00015265,"MEAN_MOTION_DDOT":0},{"OBJECT_NAME":"STARLINK-32584","OBJECT_ID":"2024-225S","EPOCH":"2025-11-22T11:03:18.379296","MEAN_MOTION":14.98350285,"ECCENTRICITY":0.00016,"INCLINATION":70.0047,"RA_OF_ASC_NODE":74.735,"ARG_OF_PERICENTER":262.5474,"MEAN_ANOMALY":97.5504,"EPHEMERIS_TYPE":0,"CLASSIFICATION_TYPE":"U","NORAD_CAT_ID":62179,"ELEMENT_SET_NO":999,"REV_AT_EPOCH":5381,"BSTAR":0.00084838,"MEAN_MOTION_DOT":0.00010049,"MEAN_MOTION_DDOT":0},{"OBJECT_NAME":"STARLINK-32587","OBJECT_ID":"2024-225T","EPOCH":"2025-11-22T09:09:08.390304","MEAN_MOTION":14.98338673,"ECCENTRICITY":0.0002605,"INCLINATION":70.003,"RA_OF_ASC_NODE":74.8381,"ARG_OF_PERICENTER":255.4179,"MEAN_ANOMALY":104.6691,"EPHEMERIS_TYPE":0,"CLASSIFICATION_TYPE":"U","NORAD_CAT_ID":62180,"ELEMENT_SET_NO":999,"REV_AT_EPOCH":5380,"BSTAR":0.00038399,"MEAN_MOTION_DOT":4.493e-5,"MEAN_MOTION_DDOT":0},{"OBJECT_NAME":"STARLINK-32602","OBJECT_ID":"2024-225U","EPOCH":"2025-11-22T11:11:56.008608","MEAN_MOTION":14.9835824,"ECCENTRICITY":0.000326,"INCLINATION":70.0034,"RA_OF_ASC_NODE":64.8198,"ARG_OF_PERICENTER":270.2097,"MEAN_ANOMALY":89.8689,"EPHEMERIS_TYPE":0,"CLASSIFICATION_TYPE":"U","NORAD_CAT_ID":62181,"ELEMENT_SET_NO":999,"REV_AT_EPOCH":5406,"BSTAR":0.00061329,"MEAN_MOTION_DOT":7.238e-5,"MEAN_MOTION_DDOT":0},{"OBJECT_NAME":"STARLINK-32565","OBJECT_ID":"2024-225V","EPOCH":"2025-11-22T08:45:07.189056","MEAN_MOTION":14.98319906,"ECCENTRICITY":0.0003876,"INCLINATION":70.0044,"RA_OF_ASC_NODE":74.8714,"ARG_OF_PERICENTER":281.714,"MEAN_ANOMALY":78.3584,"EPHEMERIS_TYPE":0,"CLASSIFICATION_TYPE":"U","NORAD_CAT_ID":62182,"ELEMENT_SET_NO":999,"REV_AT_EPOCH":5380,"BSTAR":5.9294e-5,"MEAN_MOTION_DOT":6.14e-6,"MEAN_MOTION_DDOT":0},{"OBJECT_NAME":"STARLINK-32589","OBJECT_ID":"2024-225W","EPOCH":"2025-11-22T08:44:54.388032","MEAN_MOTION":14.98333662,"ECCENTRICITY":0.0002672,"INCLINATION":70.0035,"RA_OF_ASC_NODE":75.2653,"ARG_OF_PERICENTER":260.9084,"MEAN_ANOMALY":99.1773,"EPHEMERIS_TYPE":0,"CLASSIFICATION_TYPE":"U","NORAD_CAT_ID":62183,"ELEMENT_SET_NO":999,"REV_AT_EPOCH":5379,"BSTAR":0.00014386,"MEAN_MOTION_DOT":1.624e-5,"MEAN_MOTION_DDOT":0},{"OBJECT_NAME":"STARLINK-32581","OBJECT_ID":"2024-225X","EPOCH":"2025-11-22T09:11:44.961792","MEAN_MOTION":14.98336657,"ECCENTRICITY":0.0002481,"INCLINATION":70.0038,"RA_OF_ASC_NODE":64.9224,"ARG_OF_PERICENTER":265.7703,"MEAN_ANOMALY":94.3173,"EPHEMERIS_TYPE":0,"CLASSIFICATION_TYPE":"U","NORAD_CAT_ID":62184,"ELEMENT_SET_NO":999,"REV_AT_EPOCH":5405,"BSTAR":0.00025686,"MEAN_MOTION_DOT":2.974e-5,"MEAN_MOTION_DDOT":0},{"OBJECT_NAME":"STARLINK-32686","OBJECT_ID":"2024-229A","EPOCH":"2025-11-21T22:26:08.816928","MEAN_MOTION":15.27635436,"ECCENTRICITY":0.000185,"INCLINATION":43.003,"RA_OF_ASC_NODE":155.6325,"ARG_OF_PERICENTER":270.1019,"MEAN_ANOMALY":89.9621,"EPHEMERIS_TYPE":0,"CLASSIFICATION_TYPE":"U","NORAD_CAT_ID":62192,"ELEMENT_SET_NO":999,"REV_AT_EPOCH":5412,"BSTAR":0.00091311,"MEAN_MOTION_DOT":0.00024993,"MEAN_MOTION_DDOT":0},{"OBJECT_NAME":"STARLINK-32688","OBJECT_ID":"2024-229B","EPOCH":"2025-11-21T21:17:12.720192","MEAN_MOTION":15.27613356,"ECCENTRICITY":0.0001378,"INCLINATION":42.9994,"RA_OF_ASC_NODE":159.5871,"ARG_OF_PERICENTER":288.9312,"MEAN_ANOMALY":71.139,"EPHEMERIS_TYPE":0,"CLASSIFICATION_TYPE":"U","NORAD_CAT_ID":62193,"ELEMENT_SET_NO":999,"REV_AT_EPOCH":5407,"BSTAR":0.0013547,"MEAN_MOTION_DOT":0.00037244,"MEAN_MOTION_DDOT":0},{"OBJECT_NAME":"STARLINK-32684","OBJECT_ID":"2024-229C","EPOCH":"2025-11-21T22:14:20.735232","MEAN_MOTION":15.2757838,"ECCENTRICITY":0.0002179,"INCLINATION":43.0022,"RA_OF_ASC_NODE":159.0331,"ARG_OF_PERICENTER":263.7758,"MEAN_ANOMALY":96.2845,"EPHEMERIS_TYPE":0,"CLASSIFICATION_TYPE":"U","NORAD_CAT_ID":62194,"ELEMENT_SET_NO":999,"REV_AT_EPOCH":5526,"BSTAR":0.0011824,"MEAN_MOTION_DOT":0.00032419,"MEAN_MOTION_DDOT":0},{"OBJECT_NAME":"STARLINK-32672","OBJECT_ID":"2024-229D","EPOCH":"2025-11-21T13:09:46.374624","MEAN_MOTION":15.27603331,"ECCENTRICITY":9.03e-5,"INCLINATION":42.9969,"RA_OF_ASC_NODE":161.3469,"ARG_OF_PERICENTER":179.0358,"MEAN_ANOMALY":181.0495,"EPHEMERIS_TYPE":0,"CLASSIFICATION_TYPE":"U","NORAD_CAT_ID":62195,"ELEMENT_SET_NO":999,"REV_AT_EPOCH":5402,"BSTAR":0.0009966,"MEAN_MOTION_DOT":0.00027283,"MEAN_MOTION_DDOT":0}]
